NORAD_CAT_ID,OBJECT_NAME,OBJECT_TYPE,EPOCH,MEAN_MOTION,ECCENTRICITY,INCLINATION,RA_OF_ASC_NODE,ARG_OF_PERICENTER,MEAN_ANOMALY,BSTAR,MEAN_MOTION_DOT,MEAN_MOTION_DDOT,TLE_LINE0,TLE_LINE1,TLE_LINE2,SEMIMAJOR_AXIS,PERIOD,APOGEE,PERIGEE,DECAYED
54200.0,STARLINK-5250,PAYLOAD,2024-03-29 06:44:51,15.08837577,8.18e-05,53.2176,303.034,88.6749,271.4337,4.1835e-05,3.78e-06,0.0,0 STARLINK-5250,1 54200U 22141AV  24089.28115510  .00000378  00000-0  41835-4 0  9990,2 54200  53.2176 303.0340 0000818  88.6749 271.4337 15.08837577 78754,6917.888,95.438,540.319,539.187,0.0
54200.0,STARLINK-5250,PAYLOAD,2024-03-29 21:03:19,15.08844257,9.77e-05,53.2179,300.3562,71.1277,288.9821,-3.267e-05,-8.08e-06,0.0,0 STARLINK-5250,1 54200U 22141AV  24089.87731086 -.00000808  00000-0 -32670-4 0  9994,2 54200  53.2179 300.3562 0000977  71.1277 288.9821 15.08844257 78846,6917.867,95.437,540.408,539.057,0.0
54200.0,STARLINK-5250,PAYLOAD,2024-03-30 06:35:38,15.08849848,0.000107,53.2179,298.5723,73.1602,286.9508,6.116e-05,6.86e-06,0.0,0 STARLINK-5250,1 54200U 22141AV  24090.27474634  .00000686  00000-0  61160-4 0  9991,2 54200  53.2179 298.5723 0001070  73.1602 286.9508 15.08849848 78900,6917.85,95.437,540.455,538.975,0.0
54200.0,STARLINK-5250,PAYLOAD,2024-03-30 20:54:07,15.08836497,0.0001464,53.2197,295.8945,72.364,287.7512,-1.8659e-05,-5.85e-06,0.0,0 STARLINK-5250,1 54200U 22141AV  24090.87091604 -.00000585  00000-0 -18659-4 0  9994,2 54200  53.2197 295.8945 0001464  72.3640 287.7512 15.08836497 79222,6917.891,95.438,540.769,538.743,0.0
54200.0,STARLINK-5250,PAYLOAD,2024-03-31 06:26:26,15.08839271,0.00014,53.2192,294.1127,83.9793,276.1359,-1.7462e-05,-5.66e-06,0.0,0 STARLINK-5250,1 54200U 22141AV  24091.26835963 -.00000566  00000-0 -17462-4 0  9992,2 54200  53.2192 294.1127 0001400  83.9793 276.1359 15.08839271 79053,6917.883,95.438,540.716,538.779,0.0
54200.0,STARLINK-5250,PAYLOAD,2024-03-31 22:20:16,15.08846154,0.000139,53.2192,291.1385,81.4606,278.6543,0.00014061,1.951e-05,0.0,0 STARLINK-5250,1 54200U 22141AV  24091.93075179  .00001951  00000-0  14061-3 0  9999,2 54200  53.2192 291.1385 0001390  81.4606 278.6543 15.08846154 79151,6917.862,95.437,540.688,538.765,0.0
54200.0,STARLINK-5250,PAYLOAD,2024-04-01 12:38:45,15.08834295,0.0001384,53.2175,288.4632,83.6332,276.4818,0.00011853,1.599e-05,0.0,0 STARLINK-5250,1 54200U 22141AV  24092.52692085  .00001599  00000-0  11853-3 0  9990,2 54200  53.2175 288.4632 0001384  83.6332 276.4818 15.08834295 79478,6917.898,95.438,540.72,538.805,0.0
54200.0,STARLINK-5250,PAYLOAD,2024-04-02 12:29:32,15.08839584,0.0001226,53.2162,284.0025,84.8611,275.2521,0.00011396,1.526e-05,0.0,0 STARLINK-5250,1 54200U 22141AV  24093.52051918  .00001526  00000-0  11396-3 0  9997,2 54200  53.2162 284.0025 0001226  84.8611 275.2521 15.08839584 79395,6917.882,95.438,540.595,538.899,0.0
54200.0,STARLINK-5250,PAYLOAD,2024-04-02 18:51:05,15.08844369,0.0001238,53.2166,282.8135,84.041,276.0723,0.00012121,1.642e-05,0.0,0 STARLINK-5250,1 54200U 22141AV  24093.78547653  .00001642  00000-0  12121-3 0  9997,2 54200  53.2166 282.8135 0001238  84.0410 276.0723 15.08844369 79669,6917.867,95.437,540.588,538.876,0.0
54200.0,STARLINK-5250,PAYLOAD,2024-04-03 12:20:20,15.08835735,0.0001192,53.2166,279.5418,90.6449,269.4679,0.00026233,3.889e-05,0.0,0 STARLINK-5250,1 54200U 22141AV  24094.51412135  .00003889  00000-0  26233-3 0  9999,2 54200  53.2166 279.5418 0001192  90.6449 269.4679 15.08835735 79775,6917.893,95.438,540.583,538.934,0.0
54200.0,STARLINK-5250,PAYLOAD,2024-04-03 18:41:53,15.08822274,0.0001133,53.2183,278.3523,90.72,269.3922,0.000155,2.179e-05,0.0,0 STARLINK-5250,1 54200U 22141AV  24094.77909123  .00002179  00000-0  15500-3 0  9991,2 54200  53.2183 278.3523 0001133  90.7200 269.3922 15.08822274 79818,6917.935,95.439,540.583,539.016,0.0
54200.0,STARLINK-5250,PAYLOAD,2024-04-03 21:52:39,15.08831612,0.0001188,53.2174,277.7568,91.9861,268.1267,-1.0307e-05,-4.52e-06,0.0,0 STARLINK-5250,1 54200U 22141AV  24094.91156775 -.00000452  00000-0 -10307-4 0  9999,2 54200  53.2174 277.7568 0001188  91.9861 268.1267 15.08831612 79608,6917.906,95.438,540.593,538.949,0.0
54200.0,STARLINK-5250,PAYLOAD,2024-04-04 12:11:07,15.08836471,0.0001165,53.2172,275.0809,89.8883,270.2242,3.0304e-05,1.94e-06,0.0,0 STARLINK-5250,1 54200U 22141AV  24095.50772492  .00000194  00000-0  30304-4 0  9995,2 54200  53.2172 275.0809 0001165  89.8883 270.2242 15.08836471 79694,6917.891,95.438,540.562,538.95,0.0
54200.0,STARLINK-5250,PAYLOAD,2024-04-04 18:32:39,15.08842981,0.0001209,53.217,273.8924,88.2983,271.8147,6.1266e-05,6.87e-06,0.0,0 STARLINK-5250,1 54200U 22141AV  24095.77267995  .00000687  00000-0  61266-4 0  9999,2 54200  53.2170 273.8924 0001209  88.2983 271.8147 15.08842981 79963,6917.871,95.437,540.573,538.9,0.0
54200.0,STARLINK-5250,PAYLOAD,2024-04-05 12:01:53,15.08842234,0.0001145,53.2162,270.6214,81.1834,278.9288,0.0001574,2.218e-05,0.0,0 STARLINK-5250,1 54200U 22141AV  24096.50131628  .00002218  00000-0  15740-3 0  9991,2 54200  53.2162 270.6214 0001145  81.1834 278.9288 15.08842234 79849,6917.874,95.437,540.531,538.946,0.0
54200.0,STARLINK-5250,PAYLOAD,2024-04-05 18:23:24,15.0886726,0.0001271,53.2172,269.4312,84.9108,275.2029,3.6669e-05,2.96e-06,0.0,0 STARLINK-5250,1 54200U 22141AV  24096.76626090  .00000296  00000-0  36669-4 0  9999,2 54200  53.2172 269.4312 0001271  84.9108 275.2029 15.08867260 80111,6917.797,95.436,540.541,538.783,0.0
54200.0,STARLINK-5250,PAYLOAD,2024-04-06 03:55:44,15.08846529,0.0001149,53.2165,267.6479,85.3735,274.7389,0.00017804,2.547e-05,0.0,0 STARLINK-5250,1 54200U 22141AV  24097.16371221  .00002547  00000-0  17804-3 0  9997,2 54200  53.2165 267.6479 0001149  85.3735 274.7389 15.08846529 80176,6917.86,95.437,540.52,538.931,0.0
54200.0,STARLINK-5250,PAYLOAD,2024-04-06 11:52:41,15.08830895,0.0001507,53.2184,266.1631,105.5202,254.5956,-2.8053e-05,-7.34e-06,0.0,0 STARLINK-5250,1 54200U 22141AV  24097.49492910 -.00000734  00000-0 -28053-4 0  9999,2 54200  53.2184 266.1631 0001507 105.5202 254.5956 15.08830895 80224,6917.908,95.438,540.816,538.731,0.0
54200.0,STARLINK-5250,PAYLOAD,2024-04-06 18:14:13,15.08833915,0.0001535,53.2172,264.9741,102.6532,257.4632,-0.00011818,-2.168e-05,0.0,0 STARLINK-5250,1 54200U 22141AV  24097.75988202 -.00002168  00000-0 -11818-3 0  9995,2 54200  53.2172 264.9741 0001535 102.6532 257.4632 15.08833915 80267,6917.899,95.438,540.826,538.702,0.0
54200.0,STARLINK-5250,PAYLOAD,2024-04-06 21:24:59,15.08837218,0.0001648,53.2171,264.3775,100.8831,259.2346,-7.8567e-05,-1.538e-05,0.0,0 STARLINK-5250,1 54200U 22141AV  24097.89236046 -.00001538  00000-0 -78567-4 0  9997,2 54200  53.2171 264.3775 0001648 100.8831 259.2346 15.08837218 80053,6917.889,95.438,540.894,538.614,0.0
54200.0,STARLINK-5250,PAYLOAD,2024-04-07 03:46:32,15.08835384,0.0001581,53.2167,263.1877,92.9911,267.1262,-0.00010263,-1.921e-05,0.0,0 STARLINK-5250,1 54200U 22141AV  24098.15732240 -.00001921  00000-0 -10263-3 0  9998,2 54200  53.2167 263.1877 0001581  92.9911 267.1262 15.08835384 80095,6917.894,95.438,540.853,538.666,0.0
54200.0,STARLINK-5250,PAYLOAD,2024-04-07 19:40:23,15.08840203,0.0001494,53.216,260.2132,93.5514,266.5649,-5.3569e-05,-1.14e-05,0.0,0 STARLINK-5250,1 54200U 22141AV  24098.81972170 -.00001140  00000-0 -53569-4 0  9999,2 54200  53.2160 260.2132 0001494  93.5514 266.5649 15.08840203 80424,6917.88,95.438,540.778,538.711,0.0
54200.0,STARLINK-5250,PAYLOAD,2024-04-08 03:37:19,15.08839406,0.0001548,53.2163,258.7263,92.1054,268.0115,0.00016159,2.285e-05,0.0,0 STARLINK-5250,1 54200U 22141AV  24099.15092406  .00002285  00000-0  16159-3 0  9994,2 54200  53.2163 258.7263 0001548  92.1054 268.0115 15.08839406 80246,6917.882,95.438,540.818,538.676,0.0
54200.0,STARLINK-5250,PAYLOAD,2024-04-08 19:31:10,15.08849567,0.0001546,53.2152,255.751,88.9164,271.2005,0.00039802,6.054e-05,0.0,0 STARLINK-5250,1 54200U 22141AV  24099.81332162  .00006054  00000-0  39802-3 0  9991,2 54200  53.2152 255.7510 0001546  88.9164 271.2005 15.08849567 80343,6917.851,95.437,540.786,538.647,0.0
54200.0,STARLINK-5250,PAYLOAD,2024-04-09 03:28:06,15.08844073,0.0002043,53.2153,254.2644,82.4551,277.6674,0.0002164,3.158e-05,0.0,0 STARLINK-5250,1 54200U 22141AV  24100.14452395  .00003158  00000-0  21640-3 0  9994,2 54200  53.2153 254.2644 0002043  82.4551 277.6674 15.08844073 80628,6917.868,95.437,541.146,538.32,0.0
54200.0,STARLINK-5250,PAYLOAD,2024-04-09 09:49:39,15.08847617,0.0001933,53.2156,253.0751,81.7641,278.357,0.00025092,3.708e-05,0.0,0 STARLINK-5250,1 54200U 22141AV  24100.40948199  .00003708  00000-0  25092-3 0  9991,2 54200  53.2156 253.0751 0001933  81.7641 278.3570 15.08847617 80435,6917.857,95.437,541.059,538.385,0.0
54200.0,STARLINK-5250,PAYLOAD,2024-04-10 03:18:53,15.08848975,0.0001877,53.2179,249.8049,79.4951,280.6252,0.00023715,3.489e-05,0.0,0 STARLINK-5250,1 54200U 22141AV  24101.13811995  .00003489  00000-0  23715-3 0  9991,2 54200  53.2179 249.8049 0001877  79.4951 280.6252 15.08848975 80541,6917.853,95.437,541.016,538.419,0.0
54200.0,STARLINK-5250,PAYLOAD,2024-04-10 16:01:58,15.08847466,0.0002041,53.2182,247.4262,78.9364,281.1858,0.00020307,2.946e-05,0.0,0 STARLINK-5250,1 54200U 22141AV  24101.66803954  .00002946  00000-0  20307-3 0  9996,2 54200  53.2182 247.4262 0002041  78.9364 281.1858 15.08847466 80858,6917.858,95.437,541.135,538.311,0.0
54200.0,STARLINK-5250,PAYLOAD,2024-04-11 12:41:59,15.08839229,0.0001562,53.2163,243.5614,77.1146,283.0021,4.9378e-05,4.98e-06,0.0,0 STARLINK-5250,1 54200U 22141AV  24102.52916351  .00000498  00000-0  49378-4 0  9998,2 54200  53.2163 243.5614 0001562  77.1146 283.0021 15.08839229 80986,6917.883,95.438,540.828,538.667,0.0
54200.0,STARLINK-5250,PAYLOAD,2024-04-11 14:17:22,15.08840728,0.0001632,53.2175,243.2642,77.0309,283.0866,6.6186e-05,7.65e-06,0.0,0 STARLINK-5250,1 54200U 22141AV  24102.59540283  .00000765  00000-0  66186-4 0  9995,2 54200  53.2175 243.2642 0001632  77.0309 283.0866 15.08840728 80764,6917.878,95.438,540.872,538.614,0.0
